{
    "links": {
        "self": "http://www.neowsapp.com/rest/v1/neo/3686149?api_key=iIulBulltgU6a56xZRHN4H3l9WmuAYTsLGpBGhQ2"
    },
    "id": "3686149",
    "neo_reference_id": "3686149",
    "name": "(2014 QE434)",
    "designation": "2014 QE434",
    "nasa_jpl_url": "http://ssd.jpl.nasa.gov/sbdb.cgi?sstr=3686149",
    "absolute_magnitude_h": 24.1,
    "estimated_diameter": {
        "kilometers": {
            "estimated_diameter_min": 0.040230458,
            "estimated_diameter_max": 0.0899580388
        },
        "meters": {
            "estimated_diameter_min": 40.2304579834,
            "estimated_diameter_max": 89.9580388169
        },
        "miles": {
            "estimated_diameter_min": 0.0249980399,
            "estimated_diameter_max": 0.0558973165
        },
        "feet": {
            "estimated_diameter_min": 131.9896957704,
            "estimated_diameter_max": 295.1379320721
        }
    },
    "is_potentially_hazardous_asteroid": false,
    "close_approach_data": [
        {
            "close_approach_date": "2014-08-16",
            "close_approach_date_full": "2014-Aug-16 11:05",
            "epoch_date_close_approach": 1408187100000,
            "relative_velocity": {
                "kilometers_per_second": "9.2165742782",
                "kilometers_per_hour": "33179.6674015953",
                "miles_per_hour": "20616.5550029524"
            },
            "miss_distance": {
                "astronomical": "0.0209129908",
                "lunar": "8.1351534212",
                "kilometers": "3128538.879009596",
                "miles": "1943983.9156845848"
            },
            "orbiting_body": "Earth"
        }
    ],
    "orbital_data": {
        "orbit_id": "3",
        "orbit_determination_date": "2017-04-06 08:38:51",
        "first_observation_date": "2014-08-30",
        "last_observation_date": "2014-09-04",
        "data_arc_in_days": 5,
        "observations_used": 12,
        "orbit_uncertainty": "9",
        "minimum_orbit_intersection": ".020002",
        "jupiter_tisserand_invariant": "3.511",
        "epoch_osculation": "2456902.5",
        "eccentricity": ".5174398302020041",
        "semi_major_axis": "2.137781111070291",
        "inclination": "11.04304652189473",
        "ascending_node_longitude": "145.4059044210412",
        "orbital_period": "1141.677073817831",
        "perihelion_distance": "1.031608015949028",
        "perihelion_argument": "175.664793776124",
        "aphelion_distance": "3.243954206191554",
        "perihelion_time": "2456883.815324667896",
        "mean_anomaly": "5.891756323934676",
        "mean_motion": ".3153255927231159",
        "equinox": "J2000",
        "orbit_class": {
            "orbit_class_type": "AMO",
            "orbit_class_description": "Near-Earth asteroid orbits similar to that of 1221 Amor",
            "orbit_class_range": "1.017 AU < q (perihelion) < 1.3 AU"
        }
    },
    "is_sentry_object": false
}